{
  "type": "FeatureCollection",
  "features": [
    {
      "type": "Feature",
      "properties": {
        "norad_id": 33939,
        "name": "COSMOS 2251 DEB",
        "group": "cosmos-2251-debris",
        "lat": 25.89385273636514,
        "lon": -120.54795947344063,
        "alt_km": 566.239294134296,
        "timestamp": "2025-12-19T04:59:48.699886+00:00",
        "meta_object_name": "COSMOS 2251 DEB",
        "meta_object_id": "1993-036EU",
        "meta_epoch": "2025-12-18T15:30:55.278432",
        "meta_mean_motion": 15.00303194,
        "meta_eccentricity": 0.0004259,
        "meta_inclination": 74.0073,
        "meta_ra_of_asc_node": 68.5988,
        "meta_arg_of_pericenter": 32.4564,
        "meta_mean_anomaly": 327.6884,
        "meta_ephemeris_type": 0,
        "meta_classification_type": "U",
        "meta_norad_cat_id": 33939,
        "meta_element_set_no": 999,
        "meta_rev_at_epoch": 88841,
        "meta_bstar": 0.002185317,
        "meta_mean_motion_dot": 0.00027474,
        "meta_mean_motion_ddot": 0,
        "tle_line1": "1 33939U 93036EU  25352.64647313  .00027474  00000+0  21853-2 0  9993",
        "tle_line2": "2 33939  74.0073  68.5988 0004259  32.4564 327.6884 15.00303194888411"
      },
      "geometry": {
        "type": "Point",
        "coordinates": [
          -120.54795947344063,
          25.89385273636514
        ]
      }
    },
    {
      "type": "Feature",
      "properties": {
        "norad_id": 33940,
        "name": "COSMOS 2251 DEB",
        "group": "cosmos-2251-debris",
        "lat": 40.09075796223001,
        "lon": 145.1211198306673,
        "alt_km": 701.0722172620608,
        "timestamp": "2025-12-19T04:59:48.699896+00:00",
        "meta_object_name": "COSMOS 2251 DEB",
        "meta_object_id": "1993-036EV",
        "meta_epoch": "2025-12-18T21:18:46.626624",
        "meta_mean_motion": 14.58850851,
        "meta_eccentricity": 0.00110242,
        "meta_inclination": 74.0389,
        "meta_ra_of_asc_node": 131.7895,
        "meta_arg_of_pericenter": 211.9708,
        "meta_mean_anomaly": 309.4273,
        "meta_ephemeris_type": 0,
        "meta_classification_type": "U",
        "meta_norad_cat_id": 33940,
        "meta_element_set_no": 999,
        "meta_rev_at_epoch": 88683,
        "meta_bstar": 0.00083184238,
        "meta_mean_motion_dot": 3.869e-05,
        "meta_mean_motion_ddot": 0,
        "tle_line1": "1 33940U 93036EV  25352.88803966  .00003869  00000+0  83184-3 0  9997",
        "tle_line2": "2 33940  74.0389 131.7895 0011024 211.9708 309.4273 14.58850851886838"
      },
      "geometry": {
        "type": "Point",
        "coordinates": [
          145.1211198306673,
          40.09075796223001
        ]
      }
    },
    {
      "type": "Feature",
      "properties": {
        "norad_id": 33942,
        "name": "COSMOS 2251 DEB",
        "group": "cosmos-2251-debris",
        "lat": 60.62447607561426,
        "lon": 52.35208312541073,
        "alt_km": 768.3122440205325,
        "timestamp": "2025-12-19T04:59:48.699906+00:00",
        "meta_object_name": "COSMOS 2251 DEB",
        "meta_object_id": "1993-036EX",
        "meta_epoch": "2025-12-18T22:10:21.785664",
        "meta_mean_motion": 14.37997342,
        "meta_eccentricity": 0.00205744,
        "meta_inclination": 74.0365,
        "meta_ra_of_asc_node": 263.4398,
        "meta_arg_of_pericenter": 345.5209,
        "meta_mean_anomaly": 97.8668,
        "meta_ephemeris_type": 0,
        "meta_classification_type": "U",
        "meta_norad_cat_id": 33942,
        "meta_element_set_no": 999,
        "meta_rev_at_epoch": 88223,
        "meta_bstar": 0.0001750263,
        "meta_mean_motion_dot": 5.04e-06,
        "meta_mean_motion_ddot": 0,
        "tle_line1": "1 33942U 93036EX  25352.92386326  .00000504  00000+0  17503-3 0  9995",
        "tle_line2": "2 33942  74.0365 263.4398 0020574 345.5209  97.8668 14.37997342882235"
      },
      "geometry": {
        "type": "Point",
        "coordinates": [
          52.35208312541073,
          60.62447607561426
        ]
      }
    },
    {
      "type": "Feature",
      "properties": {
        "norad_id": 33944,
        "name": "COSMOS 2251 DEB",
        "group": "cosmos-2251-debris",
        "lat": -25.854165742204017,
        "lon": -70.94530273474143,
        "alt_km": 733.9094754688695,
        "timestamp": "2025-12-19T04:59:48.699916+00:00",
        "meta_object_name": "COSMOS 2251 DEB",
        "meta_object_id": "1993-036EZ",
        "meta_epoch": "2025-12-18T22:42:58.609152",
        "meta_mean_motion": 14.37356757,
        "meta_eccentricity": 0.01124392,
        "meta_inclination": 74.0406,
        "meta_ra_of_asc_node": 297.5069,
        "meta_arg_of_pericenter": 35.5157,
        "meta_mean_anomaly": 25.1794,
        "meta_ephemeris_type": 0,
        "meta_classification_type": "U",
        "meta_norad_cat_id": 33944,
        "meta_element_set_no": 999,
        "meta_rev_at_epoch": 88117,
        "meta_bstar": 0.00027911886,
        "meta_mean_motion_dot": 8.69e-06,
        "meta_mean_motion_ddot": 0,
        "tle_line1": "1 33944U 93036EZ  25352.94651168  .00000869  00000+0  27912-3 0  9997",
        "tle_line2": "2 33944  74.0406 297.5069 0112439  35.5157  25.1794 14.37356757881171"
      },
      "geometry": {
        "type": "Point",
        "coordinates": [
          -70.94530273474143,
          -25.854165742204017
        ]
      }
    },
    {
      "type": "Feature",
      "properties": {
        "norad_id": 33945,
        "name": "COSMOS 2251 DEB",
        "group": "cosmos-2251-debris",
        "lat": 59.21094076902935,
        "lon": -36.861831941770944,
        "alt_km": 758.9328901139479,
        "timestamp": "2025-12-19T04:59:48.699926+00:00",
        "meta_object_name": "COSMOS 2251 DEB",
        "meta_object_id": "1993-036FA",
        "meta_epoch": "2025-12-18T22:00:34.459200",
        "meta_mean_motion": 14.34605667,
        "meta_eccentricity": 0.00221673,
        "meta_inclination": 74.0302,
        "meta_ra_of_asc_node": 294.948,
        "meta_arg_of_pericenter": 19.6213,
        "meta_mean_anomaly": 340.5787,
        "meta_ephemeris_type": 0,
        "meta_classification_type": "U",
        "meta_norad_cat_id": 33945,
        "meta_element_set_no": 999,
        "meta_rev_at_epoch": 88104,
        "meta_bstar": 0.00010050362,
        "meta_mean_motion_dot": 2.59e-06,
        "meta_mean_motion_ddot": 0,
        "tle_line1": "1 33945U 93036FA  25352.91706550  .00000259  00000+0  10050-3 0  9999",
        "tle_line2": "2 33945  74.0302 294.9480 0022167  19.6213 340.5787 14.34605667881045"
      },
      "geometry": {
        "type": "Point",
        "coordinates": [
          -36.861831941770944,
          59.21094076902935
        ]
      }
    },
    {
      "type": "Feature",
      "properties": {
        "norad_id": 33948,
        "name": "COSMOS 2251 DEB",
        "group": "cosmos-2251-debris",
        "lat": -59.952532905141055,
        "lon": -96.39443208828854,
        "alt_km": 774.5190310542894,
        "timestamp": "2025-12-19T04:59:48.699937+00:00",
        "meta_object_name": "COSMOS 2251 DEB",
        "meta_object_id": "1993-036FD",
        "meta_epoch": "2025-12-18T22:36:17.325216",
        "meta_mean_motion": 14.35636425,
        "meta_eccentricity": 0.00230003,
        "meta_inclination": 74.0359,
        "meta_ra_of_asc_node": 293.7543,
        "meta_arg_of_pericenter": 8.033,
        "meta_mean_anomaly": 352.1186,
        "meta_ephemeris_type": 0,
        "meta_classification_type": "U",
        "meta_norad_cat_id": 33948,
        "meta_element_set_no": 999,
        "meta_rev_at_epoch": 88112,
        "meta_bstar": 0.00015379918,
        "meta_mean_motion_dot": 4.19e-06,
        "meta_mean_motion_ddot": 0,
        "tle_line1": "1 33948U 93036FD  25352.94186719  .00000419  00000+0  15380-3 0  9993",
        "tle_line2": "2 33948  74.0359 293.7543 0023000   8.0330 352.1186 14.35636425881124"
      },
      "geometry": {
        "type": "Point",
        "coordinates": [
          -96.39443208828854,
          -59.952532905141055
        ]
      }
    },
    {
      "type": "Feature",
      "properties": {
        "norad_id": 33971,
        "name": "COSMOS 2251 DEB",
        "group": "cosmos-2251-debris",
        "lat": 71.47173284705998,
        "lon": 3.045333208045211,
        "alt_km": 758.467070311408,
        "timestamp": "2025-12-19T04:59:48.699947+00:00",
        "meta_object_name": "COSMOS 2251 DEB",
        "meta_object_id": "1993-036FE",
        "meta_epoch": "2025-12-18T20:32:10.525632",
        "meta_mean_motion": 14.39735669,
        "meta_eccentricity": 0.00187804,
        "meta_inclination": 74.0245,
        "meta_ra_of_asc_node": 242.4301,
        "meta_arg_of_pericenter": 341.874,
        "meta_mean_anomaly": 90.9939,
        "meta_ephemeris_type": 0,
        "meta_classification_type": "U",
        "meta_norad_cat_id": 33971,
        "meta_element_set_no": 999,
        "meta_rev_at_epoch": 88227,
        "meta_bstar": 0.00020345939,
        "meta_mean_motion_dot": 6.12e-06,
        "meta_mean_motion_ddot": 0,
        "tle_line1": "1 33971U 93036FE  25352.85567738  .00000612  00000+0  20346-3 0  9996",
        "tle_line2": "2 33971  74.0245 242.4301 0018780 341.8740  90.9939 14.39735669882273"
      },
      "geometry": {
        "type": "Point",
        "coordinates": [
          3.045333208045211,
          71.47173284705998
        ]
      }
    }
  ]
}